NORAD_CAT_ID,OBJECT_NAME,OBJECT_TYPE,EPOCH,MEAN_MOTION,ECCENTRICITY,INCLINATION,RA_OF_ASC_NODE,ARG_OF_PERICENTER,MEAN_ANOMALY,BSTAR,MEAN_MOTION_DOT,MEAN_MOTION_DDOT,TLE_LINE0,TLE_LINE1,TLE_LINE2,SEMIMAJOR_AXIS,PERIOD,APOGEE,PERIGEE,DECAYED
52088.0,STARLINK-3537,PAYLOAD,2024-01-30 14:49:33,15.08837609,0.0001388,53.2183,191.3623,94.7191,265.396,3.8983e-05,3.33e-06,0.0,0 STARLINK-3537,1 52088U 22029A   24030.61774393  .00000333  00000-0  38983-4 0  9991,2 52088  53.2183 191.3623 0001388  94.7191 265.3960 15.08837609106097,6917.888,95.438,540.713,538.792,0.0
52088.0,STARLINK-3537,PAYLOAD,2024-01-30 18:00:19,15.08840159,0.0001383,53.2177,190.7659,83.464,276.6509,5.8799e-05,6.48e-06,0.0,0 STARLINK-3537,1 52088U 22029A   24030.75022231  .00000648  00000-0  58799-4 0  9999,2 52088  53.2177 190.7659 0001383  83.4640 276.6509 15.08840159106112,6917.88,95.438,540.702,538.788,0.0
52088.0,STARLINK-3537,PAYLOAD,2024-01-31 19:26:29,15.08839546,0.0001451,53.2178,186.0076,79.52,280.5955,3.0082e-05,1.91e-06,0.0,0 STARLINK-3537,1 52088U 22029A   24031.81006392  .00000191  00000-0  30082-4 0  9995,2 52088  53.2178 186.0076 0001451  79.5200 280.5955 15.08839546106272,6917.882,95.438,540.751,538.743,0.0
52088.0,STARLINK-3537,PAYLOAD,2024-02-01 09:44:58,15.08836748,0.0001441,53.2173,183.3326,76.1288,283.9864,2.7474e-05,1.49e-06,0.0,0 STARLINK-3537,1 52088U 22029A   24032.40622873  .00000149  00000-0  27474-4 0  9993,2 52088  53.2173 183.3326 0001441  76.1288 283.9864 15.08836748106360,6917.89,95.438,540.752,538.758,0.0
52088.0,STARLINK-3537,PAYLOAD,2024-02-01 16:06:30,15.08838625,0.0001356,53.2166,182.1426,82.6125,277.5021,3.9808e-05,3.46e-06,0.0,0 STARLINK-3537,1 52088U 22029A   24032.67118710  .00000346  00000-0  39808-4 0  9995,2 52088  53.2166 182.1426 0001356  82.6125 277.5021 15.08838625106402,6917.885,95.438,540.688,538.812,0.0
52088.0,STARLINK-3537,PAYLOAD,2024-02-02 09:35:46,15.08823584,0.0001483,53.2171,178.8734,80.7643,279.3517,-7.6026e-05,-1.497e-05,0.0,0 STARLINK-3537,1 52088U 22029A   24033.39984489 -.00001497  00000-0 -76026-4 0  9992,2 52088  53.2171 178.8734 0001483  80.7643 279.3517 15.08823584106517,6917.931,95.439,540.821,538.77,0.0
52088.0,STARLINK-3537,PAYLOAD,2024-02-02 14:21:56,15.08827249,0.000154,53.216,177.9774,87.6337,272.4831,-0.00012108,-2.214e-05,0.0,0 STARLINK-3537,1 52088U 22029A   24033.59856749 -.00002214  00000-0 -12108-3 0  9999,2 52088  53.2160 177.9774 0001540  87.6337 272.4831 15.08827249106547,6917.919,95.438,540.85,538.719,0.0
52088.0,STARLINK-3537,PAYLOAD,2024-02-02 15:57:19,15.08820893,0.0001183,53.2174,177.6798,103.9147,256.1977,-2.7073e-05,-7.18e-06,0.0,0 STARLINK-3537,1 52088U 22029A   24033.66480628 -.00000718  00000-0 -27073-4 0  9991,2 52088  53.2174 177.6798 0001183 103.9147 256.1977 15.08820893106558,6917.939,95.439,540.622,538.985,0.0
52088.0,STARLINK-3537,PAYLOAD,2024-02-03 12:37:19,15.08833714,0.0001595,53.2174,173.8218,72.1452,287.9714,0.0001501,2.101e-05,0.0,0 STARLINK-3537,1 52088U 22029A   24034.52592113  .00002101  00000-0  15010-3 0  9993,2 52088  53.2174 173.8218 0001595  72.1452 287.9714 15.08833714106687,6917.9,95.438,540.868,538.661,0.0
52088.0,STARLINK-3537,PAYLOAD,2024-02-03 15:48:04,15.08852935,0.0001402,53.2186,173.2211,88.9401,271.1752,0.00017467,2.494e-05,0.0,0 STARLINK-3537,1 52088U 22029A   24034.65838746  .00002494  00000-0  17467-3 0  9995,2 52088  53.2186 173.2211 0001402  88.9401 271.1752 15.08852935106709,6917.841,95.437,540.676,538.736,0.0
52088.0,STARLINK-3537,PAYLOAD,2024-02-04 12:28:05,15.08843051,0.0001401,53.219,169.3572,92.1304,267.9849,0.00025897,3.836e-05,0.0,0 STARLINK-3537,1 52088U 22029A   24035.51951059  .00003836  00000-0  25897-3 0  9991,2 52088  53.2190 169.3572 0001401  92.1304 267.9849 15.08843051106831,6917.871,95.437,540.705,538.767,0.0
52088.0,STARLINK-3537,PAYLOAD,2024-02-04 14:03:28,15.08843802,0.0001352,53.2187,169.0605,86.9428,273.1719,0.00027342,4.067e-05,0.0,0 STARLINK-3537,1 52088U 22029A   24035.58574965  .00004067  00000-0  27342-3 0  9999,2 52088  53.2187 169.0605 0001352  86.9428 273.1719 15.08843802106844,6917.869,95.437,540.669,538.798,0.0
52088.0,STARLINK-3537,PAYLOAD,2024-02-04 15:38:51,15.08845805,0.0001484,53.2187,168.7626,91.2586,268.8576,0.00027989,4.17e-05,0.0,0 STARLINK-3537,1 52088U 22029A   24035.65198802  .00004170  00000-0  27989-3 0  9991,2 52088  53.2187 168.7626 0001484  91.2586 268.8576 15.08845805106851,6917.863,95.437,540.754,538.701,0.0
52088.0,STARLINK-3537,PAYLOAD,2024-02-05 12:18:52,15.08851254,0.0001489,53.2184,164.8944,104.073,256.0428,-6.3079e-05,-1.292e-05,0.0,0 STARLINK-3537,1 52088U 22029A   24036.51311169 -.00001292  00000-0 -63079-4 0  9995,2 52088  53.2184 164.8944 0001489 104.0730 256.0428 15.08851254106981,6917.846,95.437,540.741,538.681,0.0
52088.0,STARLINK-3537,PAYLOAD,2024-02-05 15:29:39,15.08850077,0.0001554,53.2186,164.3046,100.2928,259.8239,-1.9868e-05,-6.04e-06,0.0,0 STARLINK-3537,1 52088U 22029A   24036.64559169 -.00000604  00000-0 -19868-4 0  9996,2 52088  53.2186 164.3046 0001554 100.2928 259.8239 15.08850077107008,6917.85,95.437,540.79,538.64,0.0
52088.0,STARLINK-3537,PAYLOAD,2024-02-06 12:09:39,15.08844272,0.0001591,53.2185,160.4385,109.5794,250.537,-4.4126e-05,-9.9e-06,0.0,0 STARLINK-3537,1 52088U 22029A   24037.50671084 -.00000990  00000-0 -44126-4 0  9996,2 52088  53.2185 160.4385 0001591 109.5794 250.5370 15.08844272107132,6917.867,95.437,540.833,538.632,0.0
52088.0,STARLINK-3537,PAYLOAD,2024-02-06 13:45:02,15.08845228,0.0001595,53.2187,160.1415,109.9487,250.1677,-4.5463e-05,-1.012e-05,0.0,0 STARLINK-3537,1 52088U 22029A   24037.57294999 -.00001012  00000-0 -45463-4 0  9990,2 52088  53.2187 160.1415 0001595 109.9487 250.1677 15.08845228107141,6917.864,95.437,540.833,538.626,0.0
52088.0,STARLINK-3537,PAYLOAD,2024-02-07 12:00:28,15.08827203,0.000157,53.2182,155.9782,109.5248,250.5914,-6.8641e-05,-1.38e-05,0.0,0 STARLINK-3537,1 52088U 22029A   24038.50032624 -.00001380  00000-0 -68641-4 0  9990,2 52088  53.2182 155.9782 0001570 109.5248 250.5914 15.08827203107285,6917.92,95.438,540.871,538.698,0.0
52088.0,STARLINK-3537,PAYLOAD,2024-02-07 13:35:51,15.08830515,0.0001544,53.2185,155.6805,107.3786,252.7375,-8.2845e-05,-1.606e-05,0.0,0 STARLINK-3537,1 52088U 22029A   24038.56656538 -.00001606  00000-0 -82845-4 0  9995,2 52088  53.2185 155.6805 0001544 107.3786 252.7375 15.08830515107291,6917.909,95.438,540.843,538.706,0.0
52088.0,STARLINK-3537,PAYLOAD,2024-02-07 15:11:14,15.0883245,0.000138,53.2174,155.38,96.8921,263.2228,-5.8608e-05,-1.22e-05,0.0,0 STARLINK-3537,1 52088U 22029A   24038.63280382 -.00001220  00000-0 -58608-4 0  9995,2 52088  53.2174 155.3800 0001380  96.8921 263.2228 15.08832450107308,6917.903,95.438,540.723,538.814,0.0
52088.0,STARLINK-3537,PAYLOAD,2024-02-08 11:51:14,15.08833236,0.0001452,53.2177,151.5156,92.5255,267.5904,0.00014424,2.008e-05,0.0,0 STARLINK-3537,1 52088U 22029A   24039.49392083  .00002008  00000-0  14424-3 0  9992,2 52088  53.2177 151.5156 0001452  92.5255 267.5904 15.08833236107431,6917.901,95.438,540.771,538.762,0.0
52088.0,STARLINK-3537,PAYLOAD,2024-02-08 13:26:37,15.08842122,0.0001473,53.2172,151.2177,86.2617,273.8543,9.4948e-05,1.224e-05,0.0,0 STARLINK-3537,1 52088U 22029A   24039.56015799  .00001224  00000-0  94948-4 0  9995,2 52088  53.2172 151.2177 0001473  86.2617 273.8543 15.08842122107445,6917.874,95.437,540.758,538.72,0.0
52088.0,STARLINK-3537,PAYLOAD,2024-02-08 15:02:01,15.08813956,0.0001741,53.218,150.921,79.3851,280.7337,0.00053502,8.231e-05,0.0,0 STARLINK-3537,1 52088U 22029A   24039.62640314  .00008231  00000-0  53502-3 0  9994,2 52088  53.2180 150.9210 0001741  79.3851 280.7337 15.08813956107451,6917.96,95.439,541.029,538.621,0.0
52088.0,STARLINK-3537,PAYLOAD,2024-02-09 11:42:01,15.08847359,0.0001667,53.2177,147.0551,74.8483,285.2694,0.00018428,2.647e-05,0.0,0 STARLINK-3537,1 52088U 22029A   24040.48751359  .00002647  00000-0  18428-3 0  9995,2 52088  53.2177 147.0551 0001667  74.8483 285.2694 15.08847359107584,6917.858,95.437,540.876,538.57,0.0
52088.0,STARLINK-3537,PAYLOAD,2024-02-09 13:17:24,15.08850251,0.0001801,53.2181,146.7584,69.9379,290.1807,0.0002152,3.139e-05,0.0,0 STARLINK-3537,1 52088U 22029A   24040.55375203  .00003139  00000-0  21520-3 0  9997,2 52088  53.2181 146.7584 0001801  69.9379 290.1807 15.08850251107597,6917.849,95.437,540.96,538.468,0.0
52088.0,STARLINK-3537,PAYLOAD,2024-02-09 16:28:10,15.08854702,0.0001916,53.2192,146.1533,67.0982,293.0213,0.00023906,3.52e-05,0.0,0 STARLINK-3537,1 52088U 22029A   24040.68622759  .00003520  00000-0  23906-3 0  9996,2 52088  53.2192 146.1533 0001916  67.0982 293.0213 15.08854702107614,6917.835,95.437,541.026,538.375,0.0
52088.0,STARLINK-3537,PAYLOAD,2024-02-10 11:32:48,15.08842566,0.0001486,53.2188,142.5946,83.5116,276.6045,-2.1911e-05,-6.37e-06,0.0,0 STARLINK-3537,1 52088U 22029A   24041.48112094 -.00000637  00000-0 -21911-4 0  9994,2 52088  53.2188 142.5946 0001486  83.5116 276.6045 15.08842566107739,6917.873,95.437,540.766,538.71,0.0
52088.0,STARLINK-3537,PAYLOAD,2024-02-10 13:08:11,15.08844269,0.0001496,53.2183,142.2967,87.7346,272.3817,-6.4828e-06,-3.91e-06,0.0,0 STARLINK-3537,1 52088U 22029A   24041.54735949 -.00000391  00000-0 -64828-5 0  9993,2 52088  53.2183 142.2967 0001496  87.7346 272.3817 15.08844269107749,6917.867,95.437,540.767,538.697,0.0
52088.0,STARLINK-3537,PAYLOAD,2024-02-10 16:18:57,15.08849031,0.0001295,53.2175,141.6975,103.2097,256.904,-1.6021e-05,-5.43e-06,0.0,0 STARLINK-3537,1 52088U 22029A   24041.67983412 -.00000543  00000-0 -16021-4 0  9997,2 52088  53.2175 141.6975 0001295 103.2097 256.9040 15.08849031107766,6917.853,95.437,540.614,538.822,0.0
52088.0,STARLINK-3537,PAYLOAD,2024-02-11 12:58:57,15.0885755,0.000156,53.2181,137.836,106.227,253.8894,-1.3419e-05,-5.02e-06,0.0,0 STARLINK-3537,1 52088U 22029A   24042.54094587 -.00000502  00000-0 -13419-4 0  9993,2 52088  53.2181 137.8360 0001560 106.2270 253.8894 15.08857550107891,6917.827,95.436,540.771,538.613,0.0
